{"type":"FeatureCollection","features":[{"type":"Feature","properties":{"name":"Barangay 178","fullName":"Barangay 178, Zone 15, Camarin, District 3, Caloocan, Metro Manila, Philippines","city":"Caloocan","district":"District 3","zone":"Zone 15","source":"OpenStreetMap relation 11322824","sourceUrl":"https://www.openstreetmap.org/relation/11322824","license":"Open Database License (ODbL) 1.0 - (c) OpenStreetMap contributors","retrieved":"2026-09-05","retrievedVia":"https://polygons.openstreetmap.fr/get_geojson.py?id=11322824&params=0 (cross-checked against Nominatim polygon_geojson=1; both returned the identical 186-point ring)"},"geometry":{"type":"MultiPolygon","coordinates":[[[[121.0533553,14.7655508],[121.0533486,14.7627107],[121.0533504,14.7587637],[121.0534862,14.758679],[121.0535368,14.7586431],[121.0535725,14.7586015],[121.0535909,14.7585508],[121.0536045,14.7585012],[121.0536122,14.7583725],[121.0536341,14.7581448],[121.053639,14.7579861],[121.0536521,14.7575589],[121.053652,14.7570539],[121.053652,14.7569793],[121.053652,14.7568832],[121.0536509,14.7568069],[121.0536457,14.7564622],[121.0536484,14.7563116],[121.0536355,14.7542972],[121.0536227,14.7522924],[121.0536207,14.7519805],[121.0536378,14.7519036],[121.0537171,14.7519165],[121.053998,14.751962],[121.0541863,14.7517883],[121.0544116,14.7515808],[121.0545511,14.7517779],[121.054712,14.7517364],[121.0547764,14.7515808],[121.0549851,14.7515367],[121.0552211,14.7516612],[121.0553606,14.7517857],[121.0556717,14.7517338],[121.0559078,14.7516197],[121.0561223,14.7515678],[121.0560317,14.7511139],[121.0559673,14.7509588],[121.0559292,14.7508519],[121.0561497,14.7506579],[121.0563262,14.7503746],[121.0565086,14.7503643],[121.0567232,14.7502086],[121.0569544,14.7502117],[121.0572059,14.7501983],[121.0575766,14.7503051],[121.0578192,14.7502891],[121.0579044,14.7448319],[121.0582276,14.7448332],[121.0582189,14.7446983],[121.0582128,14.7445569],[121.0582048,14.7445012],[121.0581987,14.7444804],[121.0582643,14.7444177],[121.0584259,14.7442737],[121.0585541,14.7441752],[121.0592065,14.7436742],[121.0592061,14.7431579],[121.0590067,14.7431316],[121.0588217,14.7430979],[121.0586242,14.7430589],[121.0584391,14.7430125],[121.0583516,14.7429895],[121.0583704,14.742928],[121.0583972,14.7428527],[121.0585219,14.7425494],[121.0585814,14.742425],[121.0586467,14.742319],[121.0587677,14.7421837],[121.0663291,14.7421927],[121.075878,14.7423099],[121.0769046,14.7423243],[121.0770302,14.7420002],[121.0772585,14.7420616],[121.0773718,14.7420979],[121.0774749,14.7421411],[121.0775529,14.7421861],[121.0776449,14.7422779],[121.0777091,14.7423599],[121.0777577,14.7424549],[121.0778078,14.7425895],[121.0778258,14.742725],[121.0778333,14.7428592],[121.0779129,14.7444754],[121.0779317,14.7447783],[121.0778923,14.7447843],[121.0773574,14.744789],[121.076559,14.7448128],[121.0764979,14.7448492],[121.0764602,14.7449059],[121.0764197,14.7460095],[121.0764083,14.7461378],[121.0764237,14.7463169],[121.0765471,14.7463143],[121.0765444,14.7478032],[121.0765176,14.7478031],[121.0765202,14.7482415],[121.0765645,14.7482415],[121.0765631,14.7488134],[121.0765363,14.748816],[121.076535,14.7493789],[121.0757048,14.7493867],[121.0741907,14.7494023],[121.0672384,14.7494023],[121.0672337,14.7513826],[121.0672331,14.7516433],[121.0672089,14.7537858],[121.0672224,14.7582548],[121.0629612,14.7584159],[121.0629555,14.7594293],[121.0629608,14.7603733],[121.0629584,14.7607568],[121.062961,14.7607772],[121.0629643,14.7607927],[121.062969,14.7608057],[121.0629777,14.7608238],[121.0629865,14.7608368],[121.0629965,14.7608492],[121.0630107,14.760861],[121.0633738,14.7611094],[121.0632835,14.7613634],[121.0632071,14.7614775],[121.0631186,14.7615462],[121.0630245,14.7615777],[121.0629522,14.7614574],[121.0628222,14.7614429],[121.0626214,14.7615494],[121.0624972,14.7617039],[121.0623833,14.7619691],[121.0620552,14.7621978],[121.0619576,14.7622341],[121.0618112,14.7622413],[121.0616704,14.7621111],[121.0616065,14.7620246],[121.0615159,14.7618901],[121.0614772,14.7618784],[121.0613611,14.7617727],[121.0613233,14.7617477],[121.061225,14.7617291],[121.0608979,14.7618034],[121.0607043,14.7618557],[121.0605966,14.7618996],[121.0604724,14.7620433],[121.0603482,14.7621838],[121.0602334,14.7622126],[121.0601803,14.762226],[121.0600151,14.7623141],[121.0597037,14.7625864],[121.0595115,14.7628771],[121.0593278,14.7629308],[121.0591013,14.7629008],[121.0589063,14.7629055],[121.0585498,14.7628909],[121.058227,14.7630071],[121.0581183,14.7630844],[121.0580144,14.7632781],[121.0579532,14.7635563],[121.0578472,14.7636266],[121.0576566,14.7636131],[121.0575252,14.7635551],[121.0574502,14.76337],[121.0574351,14.7631051],[121.0575327,14.7629817],[121.0576904,14.7628547],[121.0578104,14.7627603],[121.0577391,14.7625679],[121.0575965,14.7624518],[121.0574577,14.7624192],[121.0572137,14.7624663],[121.0569848,14.7626151],[121.0565644,14.7629998],[121.0563843,14.7630905],[121.0561028,14.7631922],[121.0558626,14.763243],[121.0555811,14.7631885],[121.0552058,14.7630978],[121.0549844,14.7631486],[121.0547592,14.7634099],[121.0546879,14.7637692],[121.054549,14.764045],[121.0544252,14.7643716],[121.0544214,14.7649015],[121.0543651,14.7650104],[121.054215,14.7651592],[121.0538735,14.7653551],[121.0535451,14.7654881],[121.0533553,14.7655508]]]]}}]}
